NORAD_CAT_ID,OBJECT_NAME,OBJECT_TYPE,EPOCH,MEAN_MOTION,ECCENTRICITY,INCLINATION,RA_OF_ASC_NODE,ARG_OF_PERICENTER,MEAN_ANOMALY,BSTAR,MEAN_MOTION_DOT,MEAN_MOTION_DDOT,TLE_LINE0,TLE_LINE1,TLE_LINE2,SEMIMAJOR_AXIS,PERIOD,APOGEE,PERIGEE,DECAYED
52472.0,STARLINK-3881,PAYLOAD,2022-11-03 13:49:39,15.08836612,0.0001735,53.2176,145.403,46.7714,313.3422,0.00014696,2.051e-05,0.0,0 STARLINK-3881,1 52472U 22049X   22307.57615277  .00002051  00000-0  14696-3 0  9998,2 52472  53.2176 145.4030 0001735  46.7714 313.3422 15.08836612 27915,6917.891,95.438,540.956,538.555,0.0
52472.0,STARLINK-3881,PAYLOAD,2022-11-03 21:46:35,15.08846044,0.0001784,53.217,143.9165,46.7504,313.3637,0.00025868,3.832e-05,0.0,0 STARLINK-3881,1 52472U 22049X   22307.90735133  .00003832  00000-0  25868-3 0  9990,2 52472  53.2170 143.9165 0001784  46.7504 313.3637 15.08846044 27808,6917.861999999999,95.437,540.961,538.493,0.0
52472.0,STARLINK-3881,PAYLOAD,2022-11-04 04:08:07,15.08855358,0.0001746,53.217,142.7267,45.9492,314.1643,0.00020074,2.909e-05,0.0,0 STARLINK-3881,1 52472U 22049X   22308.17230814  .00002909  00000-0  20074-3 0  9994,2 52472  53.2170 142.7267 0001746  45.9492 314.1643 15.08855358 28000,6917.833000000001,95.437,540.906,538.491,0.0
52472.0,STARLINK-3881,PAYLOAD,2022-11-04 13:40:26,15.08845463,0.0001758,53.2168,140.9427,48.1085,312.0057,0.00019693,2.848e-05,0.0,0 STARLINK-3881,1 52472U 22049X   22308.56975194  .00002848  00000-0  19693-3 0  9991,2 52472  53.2168 140.9427 0001758  48.1085 312.0057 15.08845463 28069,6917.864000000001,95.437,540.945,538.513,0.0
52472.0,STARLINK-3881,PAYLOAD,2022-11-04 20:01:59,15.08835407,0.0001834,53.2169,139.7534,48.2894,311.8255,-0.00020668,-3.576e-05,0.0,0 STARLINK-3881,1 52472U 22049X   22308.83471354 -.00003576  00000-0 -20668-3 0  9995,2 52472  53.2169 139.7534 0001834  48.2894 311.8255 15.08835407 27949,6917.894,95.438,541.028,538.491,0.0
52472.0,STARLINK-3881,PAYLOAD,2022-11-05 11:55:50,15.08834663,0.0001811,53.2165,136.7798,50.4964,309.6188,0.00018559,2.666e-05,0.0,0 STARLINK-3881,1 52472U 22049X   22309.49711603  .00002666  00000-0  18559-3 0  9995,2 52472  53.2165 136.7798 0001811  50.4964 309.6188 15.08834663 28205,6917.897,95.438,541.015,538.509,0.0
52472.0,STARLINK-3881,PAYLOAD,2022-11-05 18:17:23,15.08826933,0.0001768,53.2166,135.5902,52.4236,307.6917,-0.00012487,-2.274e-05,0.0,0 STARLINK-3881,1 52472U 22049X   22309.76207975 -.00002274  00000-0 -12487-3 0  9998,2 52472  53.2166 135.5902 0001768  52.4236 307.6917 15.08826933 28080,6917.92,95.438,541.008,538.562,0.0
52472.0,STARLINK-3881,PAYLOAD,2022-11-06 03:49:43,15.08823614,0.0001829,53.2166,133.806,49.6429,310.4723,-0.00016795,-2.959e-05,0.0,0 STARLINK-3881,1 52472U 22049X   22310.15952638 -.00002959  00000-0 -16795-3 0  9992,2 52472  53.2166 133.8060 0001829  49.6429 310.4723 15.08823614 28301,6917.93,95.439,541.061,538.53,0.0
52472.0,STARLINK-3881,PAYLOAD,2022-11-06 11:46:39,15.08826744,0.0001846,53.2168,132.3191,49.9424,310.1729,-0.00011326,-2.09e-05,0.0,0 STARLINK-3881,1 52472U 22049X   22310.49072993 -.00002090  00000-0 -11326-3 0  9997,2 52472  53.2168 132.3191 0001846  49.9424 310.1729 15.08826744 28196,6917.920999999999,95.438,541.063,538.509,0.0
52472.0,STARLINK-3881,PAYLOAD,2022-11-07 05:15:54,15.08827139,0.0001871,53.2169,129.0481,49.9134,310.2022,0.0001511,2.117e-05,0.0,0 STARLINK-3881,1 52472U 22049X   22311.21937852  .00002117  00000-0  15110-3 0  9995,2 52472  53.2169 129.0481 0001871  49.9134 310.2022 15.08827139 28464,6917.92,95.438,541.0790000000002,538.49,0.0
52472.0,STARLINK-3881,PAYLOAD,2022-11-07 21:09:45,15.08838722,0.0001884,53.2164,126.0744,49.5533,310.5623,0.00037938,5.755e-05,0.0,0 STARLINK-3881,1 52472U 22049X   22311.88178042  .00005755  00000-0  37938-3 0  9999,2 52472  53.2164 126.0744 0001884  49.5533 310.5623 15.08838722 28405,6917.884,95.438,541.053,538.446,0.0
52472.0,STARLINK-3881,PAYLOAD,2022-11-08 06:42:04,15.08848396,0.0001914,53.216,124.2902,49.216,310.8998,0.00053154,8.183e-05,0.0,0 STARLINK-3881,1 52472U 22049X   22312.27921863  .00008183  00000-0  53154-3 0  9996,2 52472  53.2160 124.2902 0001914  49.2160 310.8998 15.08848396 28624,6917.855,95.437,541.044,538.396,0.0
52472.0,STARLINK-3881,PAYLOAD,2022-11-08 09:52:50,15.08851604,0.0001927,53.216,123.6954,49.28100000000001,310.8349,0.0005507999999999,8.492e-05,0.0,0 STARLINK-3881,1 52472U 22049X   22312.41169734  .00008492  00000-0  55080-3 0  9996,2 52472  53.2160 123.6954 0001927  49.2810 310.8349 15.08851604 28480,6917.845,95.437,541.043,538.377,0.0
52472.0,STARLINK-3881,PAYLOAD,2022-11-08 21:00:32,15.08863669,0.0001966,53.2162,121.6138,49.5872,310.5291,0.00063909,9.904e-05,0.0,0 STARLINK-3881,1 52472U 22049X   22312.87537073  .00009904  00000-0  63909-3 0  9999,2 52472  53.2162 121.6138 0001966  49.5872 310.5291 15.08863669 28553,6917.808000000001,95.436,541.033,538.313,0.0
52472.0,STARLINK-3881,PAYLOAD,2022-11-09 14:29:45,15.0885741,0.0001961,53.2167,118.3428,48.5568,311.5592,0.00014162,1.967e-05,0.0,0 STARLINK-3881,1 52472U 22049X   22313.60400378  .00001967  00000-0  14162-3 0  9996,2 52472  53.2167 118.3428 0001961  48.5568 311.5592 15.08857410 28663,6917.8269999999975,95.436,541.049,538.336,0.0
52472.0,STARLINK-3881,PAYLOAD,2022-11-09 20:51:18,15.08842408,0.0001956,53.2172,117.1536,47.0448,313.0708,-7.754e-05,-1.522e-05,0.0,0 STARLINK-3881,1 52472U 22049X   22313.86896892 -.00001522  00000-0 -77540-4 0  9993,2 52472  53.2172 117.1536 0001956  47.0448 313.0708 15.08842408 28860,6917.873000000001,95.437,541.091,538.385,0.0
52472.0,STARLINK-3881,PAYLOAD,2022-11-10 11:09:46,15.08845408,0.000191,53.2176,114.4773,47.4041,312.7112,-3.6294e-06,-3.46e-06,0.0,0 STARLINK-3881,1 52472U 22049X   22314.46512659 -.00000346  00000-0 -36294-5 0  9991,2 52472  53.2176 114.4773 0001910  47.4041 312.7112 15.08845408 28790,6917.864000000001,95.437,541.05,538.408,0.0
52472.0,STARLINK-3881,PAYLOAD,2022-11-10 17:31:19,15.08849476,0.0001915,53.2174,113.2881,46.9357,313.1796,3.3275e-05,2.42e-06,0.0,0 STARLINK-3881,1 52472U 22049X   22314.73008298  .00000242  00000-0  33275-4 0  9998,2 52472  53.2174 113.2881 0001915  46.9357 313.1796 15.08849476 28998,6917.851,95.437,541.0409999999998,538.3919999999998,0.0
52472.0,STARLINK-3881,PAYLOAD,2022-11-11 11:00:33,15.08846539,0.000191,53.2177,110.0171,48.9564,311.1593,9.368e-05,1.203e-05,0.0,0 STARLINK-3881,1 52472U 22049X   22315.45872091  .00001203  00000-0  93680-4 0  9992,2 52472  53.2177 110.0171 0001910  48.9564 311.1593 15.08846539 28940,6917.86,95.437,541.047,538.404,0.0
52472.0,STARLINK-3881,PAYLOAD,2022-11-11 14:11:19,15.08841271,0.0001905,53.2177,109.4224,45.674,314.4408,1.5464e-05,-4.2e-07,0.0,0 STARLINK-3881,1 52472U 22049X   22315.59120313 -.00000042  00000-0  15464-4 0  9995,2 52472  53.2177 109.4224 0001905  45.6740 314.4408 15.08841271 29125,6917.877,95.437,541.059,538.424,0.0
52472.0,STARLINK-3881,PAYLOAD,2022-11-11 15:46:43,15.08841533,0.0001908,53.2176,109.125,45.4554,314.6594,1.6928e-05,-1.9e-07,0.0,0 STARLINK-3881,1 52472U 22049X   22315.65744283 -.00000019  00000-0  16928-4 0  9990,2 52472  53.2176 109.1250 0001908  45.4554 314.6594 15.08841533 28975,6917.876,95.437,541.061,538.4209999999998,0.0
52472.0,STARLINK-3881,PAYLOAD,2022-11-12 14:02:06,15.08839475,0.0001941,53.2178,104.962,44.7342,315.3806,-4.7963e-05,-1.051e-05,0.0,0 STARLINK-3881,1 52472U 22049X   22316.58480175 -.00001051  00000-0 -47963-4 0  9991,2 52472  53.2178 104.9620 0001941  44.7342 315.3806 15.08839475 29118,6917.882,95.438,541.09,538.404,0.0
52472.0,STARLINK-3881,PAYLOAD,2022-11-12 17:12:53,15.08841383,0.0001982,53.2179,104.3676,43.7573,316.3576,-1.7939000000000002e-05,-5.74e-06,0.0,0 STARLINK-3881,1 52472U 22049X   22316.71728079 -.00000574  00000-0 -17939-4 0  9993,2 52472  53.2179 104.3676 0001982  43.7573 316.3576 15.08841383 29299,6917.876,95.437,541.112,538.37,0.0
52472.0,STARLINK-3881,PAYLOAD,2022-11-12 20:23:39,15.08842061,0.0002028,53.218,103.7729,44.8594,315.2562,-1.7751e-05,-5.71e-06,0.0,0 STARLINK-3881,1 52472U 22049X   22316.84976017 -.00000571  00000-0 -17751-4 0  9993,2 52472  53.2180 103.7729 0002028  44.8594 315.2562 15.08842061 29152,6917.874,95.437,541.1419999999998,538.336,0.0
52472.0,STARLINK-3881,PAYLOAD,2022-11-13 10:42:07,15.08833743,0.0002121,53.2181,101.0965,38.6258,321.4886,-9.8985e-05,-1.863e-05,0.0,0 STARLINK-3881,1 52472U 22049X   22317.44592363 -.00001863  00000-0 -98985-4 0  9991,2 52472  53.2181 101.0965 0002121  38.6258 321.4886 15.08833743 29243,6917.9,95.438,541.232,538.297,0.0
52472.0,STARLINK-3881,PAYLOAD,2022-11-13 17:03:40,15.08835433,0.00022,53.2181,99.9071,37.159,322.9554,-5.257600000000001e-05,-1.125e-05,0.0,0 STARLINK-3881,1 52472U 22049X   22317.71088359 -.00001125  00000-0 -52576-4 0  9993,2 52472  53.2181  99.9071 0002200  37.1590 322.9554 15.08835433 29287,6917.894,95.438,541.281,538.237,0.0
52472.0,STARLINK-3881,PAYLOAD,2022-11-14 02:35:59,15.08839302,0.0001975,53.2182,98.1231,44.2843,315.8307,3.0645e-05,2e-06,0.0,0 STARLINK-3881,1 52472U 22049X   22318.10832222  .00000200  00000-0  30645-4 0  9997,2 52472  53.2182  98.1231 0001975  44.2843 315.8307 15.08839302 29506,6917.8830000000025,95.438,541.114,538.381,0.0
52472.0,STARLINK-3881,PAYLOAD,2022-11-14 10:32:53,15.08858008,0.0002307,53.2182,96.6362,44.9942,315.1237,-0.00080433,-0.00013073,0.0,0 STARLINK-3881,1 52472U 22049X   22318.43951223 -.00013073  00000-0 -80433-3 0  9999,2 52472  53.2182  96.6362 0002307  44.9942 315.1237 15.08858008 29397,6917.825,95.436,541.286,538.094,0.0
52472.0,STARLINK-3881,PAYLOAD,2022-11-14 16:54:28,15.08833033,0.0002108,53.2191,95.4469,37.4616,322.6523,-2.7552e-05,-7.27e-06,0.0,0 STARLINK-3881,1 52472U 22049X   22318.70449280 -.00000727  00000-0 -27552-4 0  9990,2 52472  53.2191  95.4469 0002108  37.4616 322.6523 15.08833033 29433,6917.901999999999,95.438,541.225,538.308,0.0
